[{"OBJECT_NAME":"OBJECT A","OBJECT_ID":"2023-085A","EPOCH":"2026-03-09T21:42:39.504096","MEAN_MOTION":15.28003151,"ECCENTRICITY":0.00073195,"INCLINATION":97.4858,"RA_OF_ASC_NODE":178.2033,"ARG_OF_PERICENTER":32.2499,"MEAN_ANOMALY":327.9186,"EPHEMERIS_TYPE":0,"CLASSIFICATION_TYPE":"U","NORAD_CAT_ID":57004,"ELEMENT_SET_NO":999,"REV_AT_EPOCH":15139,"BSTAR":0.00063583858,"MEAN_MOTION_DOT":0.0001733,"MEAN_MOTION_DDOT":0},{"OBJECT_NAME":"STARLINK-31934","OBJECT_ID":"2024-098V","EPOCH":"2026-03-09T21:57:47.126592","MEAN_MOTION":15.275847,"ECCENTRICITY":0.00012624,"INCLINATION":42.9994,"RA_OF_ASC_NODE":272.9982,"ARG_OF_PERICENTER":260.2759,"MEAN_ANOMALY":99.795,"EPHEMERIS_TYPE":0,"CLASSIFICATION_TYPE":"U","NORAD_CAT_ID":59877,"ELEMENT_SET_NO":999,"REV_AT_EPOCH":10192,"BSTAR":-0.00024836117,"MEAN_MOTION_DOT":-7.091e-5,"MEAN_MOTION_DDOT":0}]
